{"type": "FeatureCollection", "features": [ {"type": "Feature", "properties": {"norad_id": 42741, "name": "EUTELSAT 172B", "group": "eutelsat", "lat": 0.002158329178233162, "lon": -120.45005992170438, "alt_km": 35785.60828846046, "timestamp": "2025-12-04T23:34:05.402387+00:00", "meta": {"OBJECT_NAME": "EUTELSAT 172B", "OBJECT_ID": "2017-029B", "EPOCH": "2025-12-04T12:50:38.628384", "MEAN_MOTION": 1.0027119, "ECCENTRICITY": 1.71e-05, "INCLINATION": 0.0081, "RA_OF_ASC_NODE": 80.5787, "ARG_OF_PERICENTER": 128.2888, "MEAN_ANOMALY": 229.3994, "EPHEMERIS_TYPE": 0, "CLASSIFICATION_TYPE": "U", "NORAD_CAT_ID": 42741, "ELEMENT_SET_NO": 999, "REV_AT_EPOCH": 3177, "BSTAR": 0, "MEAN_MOTION_DOT": 9e-08, "MEAN_MOTION_DDOT": 0}, "tle": {"line1": "1 42741U 17029B   25338.53516931  .00000009  00000+0  00000+0 0  9998", "line2": "2 42741   0.0081  80.5787 0000171 128.2888 229.3994  1.00271190 31777"}}, "geometry": {"type": "Point", "coordinates": [-120.45005992170438, 0.002158329178233162]}}, {"type": "Feature", "properties": {"norad_id": 44334, "name": "EUTELSAT 7C", "group": "eutelsat", "lat": -0.04010991422826282, "lon": 74.51853132460579, "alt_km": 35800.47039377649, "timestamp": "2025-12-04T23:34:05.402398+00:00", "meta": {"OBJECT_NAME": "EUTELSAT 7C", "OBJECT_ID": "2019-034B", "EPOCH": "2025-12-04T05:11:56.717088", "MEAN_MOTION": 1.00269705, "ECCENTRICITY": 0.000344, "INCLINATION": 0.0758, "RA_OF_ASC_NODE": 179.6885, "ARG_OF_PERICENTER": 56.5984, "MEAN_ANOMALY": 281.9777, "EPHEMERIS_TYPE": 0, "CLASSIFICATION_TYPE": "U", "NORAD_CAT_ID": 44334, "ELEMENT_SET_NO": 999, "REV_AT_EPOCH": 488, "BSTAR": 0, "MEAN_MOTION_DOT": 6.4e-07, "MEAN_MOTION_DDOT": 0}, "tle": {"line1": "1 44334U 19034B   25338.21662867  .00000064  00000+0  00000+0 0  9992", "line2": "2 44334   0.0758 179.6885 0003440  56.5984 281.9777  1.00269705  4883"}}, "geometry": {"type": "Point", "coordinates": [74.51853132460579, -0.04010991422826282]}}, {"type": "Feature", "properties": {"norad_id": 44624, "name": "EUTELSAT 5 WEST B", "group": "eutelsat", "lat": 0.09537185218108542, "lon": 62.56359051970079, "alt_km": 35801.382572220275, "timestamp": "2025-12-04T23:34:05.402410+00:00", "meta": {"OBJECT_NAME": "EUTELSAT 5 WEST B", "OBJECT_ID": "2019-067A", "EPOCH": "2025-12-04T13:42:12.244320", "MEAN_MOTION": 1.00270033, "ECCENTRICITY": 0.0003567, "INCLINATION": 0.0692, "RA_OF_ASC_NODE": 330.6082, "ARG_OF_PERICENTER": 283.2398, "MEAN_ANOMALY": 20.3528, "EPHEMERIS_TYPE": 0, "CLASSIFICATION_TYPE": "U", "NORAD_CAT_ID": 44624, "ELEMENT_SET_NO": 999, "REV_AT_EPOCH": 2248, "BSTAR": 0, "MEAN_MOTION_DOT": -2.8e-07, "MEAN_MOTION_DDOT": 0}, "tle": {"line1": "1 44624U 19067A   25338.57097505 -.00000028  00000+0  00000+0 0  9991", "line2": "2 44624   0.0692 330.6082 0003567 283.2398  20.3528  1.00270033 22489"}}, "geometry": {"type": "Point", "coordinates": [62.56359051970079, 0.09537185218108542]}}, {"type": "Feature", "properties": {"norad_id": 45027, "name": "EUTELSAT KONNECT", "group": "eutelsat", "lat": 0.004073133089086838, "lon": 74.74972929611752, "alt_km": 35792.73466907011, "timestamp": "2025-12-04T23:34:05.402422+00:00", "meta": {"OBJECT_NAME": "EUTELSAT KONNECT", "OBJECT_ID": "2020-005B", "EPOCH": "2025-12-04T08:37:30.489888", "MEAN_MOTION": 1.00272344, "ECCENTRICITY": 0.0001642, "INCLINATION": 0.0692, "RA_OF_ASC_NODE": 100.602, "ARG_OF_PERICENTER": 164.0721, "MEAN_ANOMALY": 305.3307, "EPHEMERIS_TYPE": 0, "CLASSIFICATION_TYPE": "U", "NORAD_CAT_ID": 45027, "ELEMENT_SET_NO": 999, "REV_AT_EPOCH": 2237, "BSTAR": 0, "MEAN_MOTION_DOT": 6.5e-07, "MEAN_MOTION_DDOT": 0}, "tle": {"line1": "1 45027U 20005B   25338.35938067  .00000065  00000+0  00000+0 0  9996", "line2": "2 45027   0.0692 100.6020 0001642 164.0721 305.3307  1.00272344 22378"}}, "geometry": {"type": "Point", "coordinates": [74.74972929611752, 0.004073133089086838]}}, {"type": "Feature", "properties": {"norad_id": 49056, "name": "EUTELSAT QUANTUM", "group": "eutelsat", "lat": 0.03169333948299539, "lon": 115.23379665855155, "alt_km": 35800.24251128641, "timestamp": "2025-12-04T23:34:05.402433+00:00", "meta": {"OBJECT_NAME": "EUTELSAT QUANTUM", "OBJECT_ID": "2021-069B", "EPOCH": "2025-12-04T13:57:10.807776", "MEAN_MOTION": 1.00269477, "ECCENTRICITY": 0.0003673, "INCLINATION": 0.0208, "RA_OF_ASC_NODE": 24.1809, "ARG_OF_PERICENTER": 241.8459, "MEAN_ANOMALY": 64.6276, "EPHEMERIS_TYPE": 0, "CLASSIFICATION_TYPE": "U", "NORAD_CAT_ID": 49056, "ELEMENT_SET_NO": 999, "REV_AT_EPOCH": 1597, "BSTAR": 0, "MEAN_MOTION_DOT": 1.41e-06, "MEAN_MOTION_DDOT": 0}, "tle": {"line1": "1 49056U 21069B   25338.58137509  .00000141  00000+0  00000+0 0  9995", "line2": "2 49056   0.0208  24.1809 0003673 241.8459  64.6276  1.00269477 15971"}}, "geometry": {"type": "Point", "coordinates": [115.23379665855155, 0.03169333948299539]}}, {"type": "Feature", "properties": {"norad_id": 53765, "name": "EUTELSAT KONNECT VHTS", "group": "eutelsat", "lat": 0.0024562265763883088, "lon": 70.2326137138519, "alt_km": 35797.97327296927, "timestamp": "2025-12-04T23:34:05.402445+00:00", "meta": {"OBJECT_NAME": "EUTELSAT KONNECT VHTS", "OBJECT_ID": "2022-110A", "EPOCH": "2025-12-04T13:44:12.050880", "MEAN_MOTION": 1.00269123, "ECCENTRICITY": 0.0002763, "INCLINATION": 0.0604, "RA_OF_ASC_NODE": 108.2919, "ARG_OF_PERICENTER": 124.354, "MEAN_ANOMALY": 49.743, "EPHEMERIS_TYPE": 0, "CLASSIFICATION_TYPE": "U", "NORAD_CAT_ID": 53765, "ELEMENT_SET_NO": 999, "REV_AT_EPOCH": 487, "BSTAR": 0, "MEAN_MOTION_DOT": 3.1e-07, "MEAN_MOTION_DDOT": 0}, "tle": {"line1": "1 53765U 22110A   25338.57236170  .00000031  00000+0  00000+0 0  9996", "line2": "2 53765   0.0604 108.2919 0002763 124.3540  49.7430  1.00269123  4875"}}, "geometry": {"type": "Point", "coordinates": [70.2326137138519, 0.0024562265763883088]}}, {"type": "Feature", "properties": {"norad_id": 54048, "name": "EUTELSAT HOTBIRD 13F", "group": "eutelsat", "lat": 0.04675930833714118, "lon": 80.57270651636588, "alt_km": 35785.85437551066, "timestamp": "2025-12-04T23:34:05.402456+00:00", "meta": {"OBJECT_NAME": "EUTELSAT HOTBIRD 13F", "OBJECT_ID": "2022-134A", "EPOCH": "2025-12-04T13:47:19.252032", "MEAN_MOTION": 1.00270673, "ECCENTRICITY": 0.0002145, "INCLINATION": 0.0509, "RA_OF_ASC_NODE": 291.8865, "ARG_OF_PERICENTER": 61.6816, "MEAN_ANOMALY": 299.907, "EPHEMERIS_TYPE": 0, "CLASSIFICATION_TYPE": "U", "NORAD_CAT_ID": 54048, "ELEMENT_SET_NO": 999, "REV_AT_EPOCH": 1142, "BSTAR": 0, "MEAN_MOTION_DOT": 1.02e-06, "MEAN_MOTION_DDOT": 0}, "tle": {"line1": "1 54048U 22134A   25338.57452838  .00000102  00000+0  00000+0 0  9997", "line2": "2 54048   0.0509 291.8865 0002145  61.6816 299.9070  1.00270673 11426"}}, "geometry": {"type": "Point", "coordinates": [80.57270651636588, 0.04675930833714118]}}, {"type": "Feature", "properties": {"norad_id": 54225, "name": "EUTELSAT HOTBIRD 13G", "group": "eutelsat", "lat": 0.005534223613689682, "lon": 80.52567459677985, "alt_km": 35788.60743893243, "timestamp": "2025-12-04T23:34:05.402468+00:00", "meta": {"OBJECT_NAME": "EUTELSAT HOTBIRD 13G", "OBJECT_ID": "2022-146A", "EPOCH": "2025-12-04T01:48:08.883648", "MEAN_MOTION": 1.00271083, "ECCENTRICITY": 0.0002144, "INCLINATION": 0.0481, "RA_OF_ASC_NODE": 238.3515, "ARG_OF_PERICENTER": 307.4733, "MEAN_ANOMALY": 287.3658, "EPHEMERIS_TYPE": 0, "CLASSIFICATION_TYPE": "U", "NORAD_CAT_ID": 54225, "ELEMENT_SET_NO": 999, "REV_AT_EPOCH": 551, "BSTAR": 0, "MEAN_MOTION_DOT": 1.04e-06, "MEAN_MOTION_DDOT": 0}, "tle": {"line1": "1 54225U 22146A   25338.07510282  .00000104  00000+0  00000+0 0  9992", "line2": "2 54225   0.0481 238.3515 0002144 307.4733 287.3658  1.00271083  5510"}}, "geometry": {"type": "Point", "coordinates": [80.52567459677985, 0.005534223613689682]}}, {"type": "Feature", "properties": {"norad_id": 54259, "name": "EUTELSAT 10B", "group": "eutelsat", "lat": 0.009447113343423227, "lon": 77.5355115026345, "alt_km": 35788.54771732169, "timestamp": "2025-12-04T23:34:05.402480+00:00", "meta": {"OBJECT_NAME": "EUTELSAT 10B", "OBJECT_ID": "2022-157A", "EPOCH": "2025-12-04T13:46:26.835744", "MEAN_MOTION": 1.00267156, "ECCENTRICITY": 0.0001176, "INCLINATION": 0.0608, "RA_OF_ASC_NODE": 104.3819, "ARG_OF_PERICENTER": 77.0234, "MEAN_ANOMALY": 108.856, "EPHEMERIS_TYPE": 0, "CLASSIFICATION_TYPE": "U", "NORAD_CAT_ID": 54259, "ELEMENT_SET_NO": 999, "REV_AT_EPOCH": 1107, "BSTAR": 0, "MEAN_MOTION_DOT": 8.2e-07, "MEAN_MOTION_DDOT": 0}, "tle": {"line1": "1 54259U 22157A   25338.57392171  .00000082  00000+0  00000+0 0  9996", "line2": "2 54259   0.0608 104.3819 0001176  77.0234 108.8560  1.00267156 11070"}}, "geometry": {"type": "Point", "coordinates": [77.5355115026345, 0.009447113343423227]}}, {"type": "Feature", "properties": {"norad_id": 59346, "name": "EUTELSAT 36D", "group": "eutelsat", "lat": 0.02234922900342105, "lon": 103.42986033613536, "alt_km": 35788.784056219345, "timestamp": "2025-12-04T23:34:05.402509+00:00", "meta": {"OBJECT_NAME": "EUTELSAT 36D", "OBJECT_ID": "2024-059A", "EPOCH": "2025-12-04T04:07:21.549216", "MEAN_MOTION": 1.00269711, "ECCENTRICITY": 5.71e-05, "INCLINATION": 0.006, "RA_OF_ASC_NODE": 13.2097, "ARG_OF_PERICENTER": 292.2677, "MEAN_ANOMALY": 225.4931, "EPHEMERIS_TYPE": 0, "CLASSIFICATION_TYPE": "U", "NORAD_CAT_ID": 59346, "ELEMENT_SET_NO": 999, "REV_AT_EPOCH": 619, "BSTAR": 0, "MEAN_MOTION_DOT": 1.72e-06, "MEAN_MOTION_DDOT": 0}, "tle": {"line1": "1 59346U 24059A   25338.17177719  .00000172  00000+0  00000+0 0  9996", "line2": "2 59346   0.0060  13.2097 0000571 292.2677 225.4931  1.00269711  6194"}}, "geometry": {"type": "Point", "coordinates": [103.42986033613536, 0.02234922900342105]}}]}